[Satellite]
VERSION=1.1
NAME=FALCONSAT
NICKNAME=FALCONSAT
TLE1=1 26064U 00004D   11059.80210733 -.00000072  00000-0 -44341-5 0  9950
TLE2=2 26064 100.1916 327.8232 0037901 320.0290  39.8104 14.35474250580992
